{"type": "FeatureCollection", "features": [ {"type": "Feature", "properties": {"norad_id": 35191, "name": "FENGYUN 1C DEB", "group": "fengyun-1c-debris", "lat": 36.09173645864495, "lon": -25.941994715966914, "alt_km": 977.2990957660422, "timestamp": "2025-12-25T03:55:56.645744+00:00", "meta": {"OBJECT_NAME": "FENGYUN 1C DEB", "OBJECT_ID": "1999-025DNX", "EPOCH": "2025-12-21T04:49:10.111008", "MEAN_MOTION": 13.91207392, "ECCENTRICITY": 0.01025786, "INCLINATION": 99.0161, "RA_OF_ASC_NODE": 336.856, "ARG_OF_PERICENTER": 185.6565, "MEAN_ANOMALY": 174.3444, "EPHEMERIS_TYPE": 0, "CLASSIFICATION_TYPE": "U", "NORAD_CAT_ID": 35191, "ELEMENT_SET_NO": 999, "REV_AT_EPOCH": 88019, "BSTAR": 7.2115022e-05, "MEAN_MOTION_DOT": 5.2e-07, "MEAN_MOTION_DDOT": 0}, "tle": {"line1": "1 35191U 99025DNX 25355.20081147  .00000052  00000+0  72115-4 0  9993", "line2": "2 35191  99.0161 336.8560 0102578 185.6565 174.3444 13.91207392880197"}}, "geometry": {"type": "Point", "coordinates": [-25.941994715966914, 36.09173645864495]}}, {"type": "Feature", "properties": {"norad_id": 35194, "name": "FENGYUN 1C DEB", "group": "fengyun-1c-debris", "lat": 24.134464083931086, "lon": -92.47867154166715, "alt_km": 727.5054669063347, "timestamp": "2025-12-25T03:55:56.645754+00:00", "meta": {"OBJECT_NAME": "FENGYUN 1C DEB", "OBJECT_ID": "1999-025DPA", "EPOCH": "2025-12-12T01:09:46.826496", "MEAN_MOTION": 14.60293761, "ECCENTRICITY": 0.01145377, "INCLINATION": 98.9481, "RA_OF_ASC_NODE": 69.3173, "ARG_OF_PERICENTER": 78.0348, "MEAN_ANOMALY": 283.3663, "EPHEMERIS_TYPE": 0, "CLASSIFICATION_TYPE": "U", "NORAD_CAT_ID": 35194, "ELEMENT_SET_NO": 999, "REV_AT_EPOCH": 65380, "BSTAR": 0.0013884757, "MEAN_MOTION_DOT": 7.302e-05, "MEAN_MOTION_DDOT": 0}, "tle": {"line1": "1 35194U 99025DPA 25346.04845864  .00007302  00000+0  13885-2 0  9994", "line2": "2 35194  98.9481  69.3173 0114537  78.0348 283.3663 14.60293761653805"}}, "geometry": {"type": "Point", "coordinates": [-92.47867154166715, 24.134464083931086]}}, {"type": "Feature", "properties": {"norad_id": 35195, "name": "FENGYUN 1C DEB", "group": "fengyun-1c-debris", "lat": -32.76244350219094, "lon": 100.28199466747732, "alt_km": 679.3697494029147, "timestamp": "2025-12-25T03:55:56.645764+00:00", "meta": {"OBJECT_NAME": "FENGYUN 1C DEB", "OBJECT_ID": "1999-025DPB", "EPOCH": "2025-12-22T00:13:11.050752", "MEAN_MOTION": 14.56075871, "ECCENTRICITY": 0.01032816, "INCLINATION": 98.9839, "RA_OF_ASC_NODE": 91.0439, "ARG_OF_PERICENTER": 40.5649, "MEAN_ANOMALY": 320.3184, "EPHEMERIS_TYPE": 0, "CLASSIFICATION_TYPE": "U", "NORAD_CAT_ID": 35195, "ELEMENT_SET_NO": 999, "REV_AT_EPOCH": 91061, "BSTAR": 0.00065824609, "MEAN_MOTION_DOT": 3.061e-05, "MEAN_MOTION_DDOT": 0}, "tle": {"line1": "1 35195U 99025DPB 25356.00915568  .00003061  00000+0  65825-3 0  9991", "line2": "2 35195  98.9839  91.0439 0103281  40.5649 320.3184 14.56075871910612"}}, "geometry": {"type": "Point", "coordinates": [100.28199466747732, -32.76244350219094]}}, {"type": "Feature", "properties": {"norad_id": 35196, "name": "FENGYUN 1C DEB", "group": "fengyun-1c-debris", "lat": -81.22139663493162, "lon": 90.42441047874829, "alt_km": 699.2787767830114, "timestamp": "2025-12-25T03:55:56.645775+00:00", "meta": {"OBJECT_NAME": "FENGYUN 1C DEB", "OBJECT_ID": "1999-025DPC", "EPOCH": "2025-12-23T00:02:17.953152", "MEAN_MOTION": 14.19827726, "ECCENTRICITY": 0.02139085, "INCLINATION": 98.5351, "RA_OF_ASC_NODE": 11.8154, "ARG_OF_PERICENTER": 308.5465, "MEAN_ANOMALY": 78.8438, "EPHEMERIS_TYPE": 0, "CLASSIFICATION_TYPE": "U", "NORAD_CAT_ID": 35196, "ELEMENT_SET_NO": 999, "REV_AT_EPOCH": 89280, "BSTAR": 0.00080318519, "MEAN_MOTION_DOT": 2.095e-05, "MEAN_MOTION_DDOT": 0}, "tle": {"line1": "1 35196U 99025DPC 25357.00159668  .00002095  00000+0  80319-3 0  9995", "line2": "2 35196  98.5351  11.8154 0213908 308.5465  78.8438 14.19827726892803"}}, "geometry": {"type": "Point", "coordinates": [90.42441047874829, -81.22139663493162]}}, {"type": "Feature", "properties": {"norad_id": 35200, "name": "FENGYUN 1C DEB", "group": "fengyun-1c-debris", "lat": 51.57699452397115, "lon": 166.44307549107597, "alt_km": 1126.780098238286, "timestamp": "2025-12-25T03:55:56.645785+00:00", "meta": {"OBJECT_NAME": "FENGYUN 1C DEB", "OBJECT_ID": "1999-025DPG", "EPOCH": "2025-12-24T04:22:04.081152", "MEAN_MOTION": 13.41968394, "ECCENTRICITY": 0.03530999, "INCLINATION": 98.871, "RA_OF_ASC_NODE": 334.2242, "ARG_OF_PERICENTER": 31.4878, "MEAN_ANOMALY": 31, "EPHEMERIS_TYPE": 0, "CLASSIFICATION_TYPE": "U", "NORAD_CAT_ID": 35200, "ELEMENT_SET_NO": 999, "REV_AT_EPOCH": 66057, "BSTAR": 0.00047693459, "MEAN_MOTION_DOT": 3.51e-06, "MEAN_MOTION_DDOT": 0}, "tle": {"line1": "1 35200U 99025DPG 25358.18199168  .00000351  00000+0  47693-3 0  9991", "line2": "2 35200  98.8710 334.2242 0353099  31.4878  31.0000 13.41968394660571"}}, "geometry": {"type": "Point", "coordinates": [166.44307549107597, 51.57699452397115]}}, {"type": "Feature", "properties": {"norad_id": 35201, "name": "FENGYUN 1C DEB", "group": "fengyun-1c-debris", "lat": -77.31003258445637, "lon": 144.92932740114145, "alt_km": 860.2301191809602, "timestamp": "2025-12-25T03:55:56.645795+00:00", "meta": {"OBJECT_NAME": "FENGYUN 1C DEB", "OBJECT_ID": "1999-025DPH", "EPOCH": "2025-12-24T20:28:23.055168", "MEAN_MOTION": 14.11057041, "ECCENTRICITY": 0.0006228, "INCLINATION": 98.7078, "RA_OF_ASC_NODE": 7.5196, "ARG_OF_PERICENTER": 210.6032, "MEAN_ANOMALY": 272.1099, "EPHEMERIS_TYPE": 0, "CLASSIFICATION_TYPE": "U", "NORAD_CAT_ID": 35201, "ELEMENT_SET_NO": 999, "REV_AT_EPOCH": 87190, "BSTAR": 0.0001073, "MEAN_MOTION_DOT": 1.5e-06, "MEAN_MOTION_DDOT": 0}, "tle": {"line1": "1 35201U 99025DPH 25358.85304462  .00000150  00000+0  10730-3 0  9990", "line2": "2 35201  98.7078   7.5196 0006228 210.6032 272.1099 14.11057041871901"}}, "geometry": {"type": "Point", "coordinates": [144.92932740114145, -77.31003258445637]}}, {"type": "Feature", "properties": {"norad_id": 35202, "name": "FENGYUN 1C DEB", "group": "fengyun-1c-debris", "lat": 38.964806278441074, "lon": 35.76485477310832, "alt_km": 983.1214150095511, "timestamp": "2025-12-25T03:55:56.645805+00:00", "meta": {"OBJECT_NAME": "FENGYUN 1C DEB", "OBJECT_ID": "1999-025DPJ", "EPOCH": "2025-12-16T02:04:31.277568", "MEAN_MOTION": 13.34745262, "ECCENTRICITY": 0.03737817, "INCLINATION": 100.0908, "RA_OF_ASC_NODE": 35.0737, "ARG_OF_PERICENTER": 0.1614, "MEAN_ANOMALY": 359.9571, "EPHEMERIS_TYPE": 0, "CLASSIFICATION_TYPE": "U", "NORAD_CAT_ID": 35202, "ELEMENT_SET_NO": 999, "REV_AT_EPOCH": 57021, "BSTAR": 0.00048107163, "MEAN_MOTION_DOT": 3.14e-06, "MEAN_MOTION_DDOT": 0}, "tle": {"line1": "1 35202U 99025DPJ 25350.08647312  .00000314  00000+0  48107-3 0  9993", "line2": "2 35202 100.0908  35.0737 0373781   0.1614 359.9571 13.34745262570219"}}, "geometry": {"type": "Point", "coordinates": [35.76485477310832, 38.964806278441074]}}, {"type": "Feature", "properties": {"norad_id": 35203, "name": "FENGYUN 1C DEB", "group": "fengyun-1c-debris", "lat": 66.94577531099505, "lon": 178.39756619401658, "alt_km": 793.5495657559713, "timestamp": "2025-12-25T03:55:56.645817+00:00", "meta": {"OBJECT_NAME": "FENGYUN 1C DEB", "OBJECT_ID": "1999-025DPK", "EPOCH": "2025-12-22T17:27:58.469184", "MEAN_MOTION": 13.26459504, "ECCENTRICITY": 0.05116378, "INCLINATION": 102.0716, "RA_OF_ASC_NODE": 325.3726, "ARG_OF_PERICENTER": 137.243, "MEAN_ANOMALY": 226.9688, "EPHEMERIS_TYPE": 0, "CLASSIFICATION_TYPE": "U", "NORAD_CAT_ID": 35203, "ELEMENT_SET_NO": 999, "REV_AT_EPOCH": 59783, "BSTAR": 0.0019832068, "MEAN_MOTION_DOT": 1.733e-05, "MEAN_MOTION_DDOT": 0}, "tle": {"line1": "1 35203U 99025DPK 25356.72776006  .00001733  00000+0  19832-2 0  9992", "line2": "2 35203 102.0716 325.3726 0511637 137.2430 226.9688 13.26459504597835"}}, "geometry": {"type": "Point", "coordinates": [178.39756619401658, 66.94577531099505]}}, {"type": "Feature", "properties": {"norad_id": 35204, "name": "FENGYUN 1C DEB", "group": "fengyun-1c-debris", "lat": 58.87684762971377, "lon": 173.29831501093088, "alt_km": 742.5061785611497, "timestamp": "2025-12-25T03:55:56.645827+00:00", "meta": {"OBJECT_NAME": "FENGYUN 1C DEB", "OBJECT_ID": "1999-025DPL", "EPOCH": "2025-12-21T09:03:39.055968", "MEAN_MOTION": 14.48905432, "ECCENTRICITY": 0.00394837, "INCLINATION": 99.0069, "RA_OF_ASC_NODE": 184.4907, "ARG_OF_PERICENTER": 298.2194, "MEAN_ANOMALY": 182.9509, "EPHEMERIS_TYPE": 0, "CLASSIFICATION_TYPE": "U", "NORAD_CAT_ID": 35204, "ELEMENT_SET_NO": 999, "REV_AT_EPOCH": 91055, "BSTAR": 0.0016476709, "MEAN_MOTION_DOT": 6.251e-05, "MEAN_MOTION_DDOT": 0}, "tle": {"line1": "1 35204U 99025DPL 25355.37753537  .00006251  00000+0  16477-2 0  9999", "line2": "2 35204  99.0069 184.4907 0039483 298.2194 182.9509 14.48905432910558"}}, "geometry": {"type": "Point", "coordinates": [173.29831501093088, 58.87684762971377]}}, {"type": "Feature", "properties": {"norad_id": 35207, "name": "FENGYUN 1C DEB", "group": "fengyun-1c-debris", "lat": -81.13879098677889, "lon": 176.82854732443107, "alt_km": 691.6322431446415, "timestamp": "2025-12-25T03:55:56.645859+00:00", "meta": {"OBJECT_NAME": "FENGYUN 1C DEB", "OBJECT_ID": "1999-025DPP", "EPOCH": "2025-12-18T12:18:35.176032", "MEAN_MOTION": 14.55542717, "ECCENTRICITY": 0.00552305, "INCLINATION": 98.6905, "RA_OF_ASC_NODE": 91.073, "ARG_OF_PERICENTER": 237.6836, "MEAN_ANOMALY": 121.9005, "EPHEMERIS_TYPE": 0, "CLASSIFICATION_TYPE": "U", "NORAD_CAT_ID": 35207, "ELEMENT_SET_NO": 999, "REV_AT_EPOCH": 64988, "BSTAR": 0.0018220991, "MEAN_MOTION_DOT": 8.059e-05, "MEAN_MOTION_DDOT": 0}, "tle": {"line1": "1 35207U 99025DPP 25352.51290713  .00008059  00000+0  18221-2 0  9994", "line2": "2 35207  98.6905  91.0730 0055230 237.6836 121.9005 14.55542717649880"}}, "geometry": {"type": "Point", "coordinates": [176.82854732443107, -81.13879098677889]}}]}